{
  "links" : {
    "next" : "https://api.nasa.gov/neo/rest/v1/feed?start_date=2012-07-23&end_date=2012-07-23&detailed=true&api_key=t0TVs3DtDT2H8Oy2Zy8m2eVrNsAVKAexjcZXUckd",
    "prev" : "https://api.nasa.gov/neo/rest/v1/feed?start_date=2012-07-21&end_date=2012-07-21&detailed=true&api_key=t0TVs3DtDT2H8Oy2Zy8m2eVrNsAVKAexjcZXUckd",
    "self" : "https://api.nasa.gov/neo/rest/v1/feed?start_date=2012-07-22&end_date=2012-07-22&detailed=true&api_key=t0TVs3DtDT2H8Oy2Zy8m2eVrNsAVKAexjcZXUckd"
  },
  "element_count" : 8,
  "near_earth_objects" : {
    "2012-07-22" : [ {
      "links" : {
        "self" : "https://api.nasa.gov/neo/rest/v1/neo/2380636?api_key=t0TVs3DtDT2H8Oy2Zy8m2eVrNsAVKAexjcZXUckd"
      },
      "neo_reference_id" : "2380636",
      "name" : "380636 (2004 XN14)",
      "nasa_jpl_url" : "http://ssd.jpl.nasa.gov/sbdb.cgi?sstr=2380636",
      "absolute_magnitude_h" : 19.7,
      "estimated_diameter" : {
        "kilometers" : {
          "estimated_diameter_min" : 0.3051792326,
          "estimated_diameter_max" : 0.6824015094
        },
        "meters" : {
          "estimated_diameter_min" : 305.1792325939,
          "estimated_diameter_max" : 682.4015094011
        },
        "miles" : {
          "estimated_diameter_min" : 0.1896295249,
          "estimated_diameter_max" : 0.4240245083
        },
        "feet" : {
          "estimated_diameter_min" : 1001.2442334633,
          "estimated_diameter_max" : 2238.8501681036
        }
      },
      "is_potentially_hazardous_asteroid" : true,
      "close_approach_data" : [ {
        "close_approach_date" : "2012-07-22",
        "epoch_date_close_approach" : 1342940400000,
        "relative_velocity" : {
          "kilometers_per_second" : "9.252223577",
          "kilometers_per_hour" : "33308.0048771021",
          "miles_per_hour" : "20696.2989193305"
        },
        "miss_distance" : {
          "astronomical" : "0.2525885148",
          "lunar" : "98.2569274902",
          "kilometers" : "37786704",
          "miles" : "23479570"
        },
        "orbiting_body" : "Earth"
      } ],
      "orbital_data" : {
        "orbit_id" : "53",
        "orbit_determination_date" : "2017-04-06 09:22:17",
        "orbit_uncertainty" : "0",
        "minimum_orbit_intersection" : ".00246818",
        "jupiter_tisserand_invariant" : "6.388",
        "epoch_osculation" : "2458000.5",
        "eccentricity" : ".2665004853853253",
        "semi_major_axis" : ".9313107459315226",
        "inclination" : "10.74352182808443",
        "ascending_node_longitude" : "120.8696460726351",
        "orbital_period" : "328.276918434076",
        "perihelion_distance" : ".6831159800962024",
        "perihelion_argument" : "115.7031672720138",
        "aphelion_distance" : "1.179505511766843",
        "perihelion_time" : "2458060.439332735238",
        "mean_anomaly" : "294.2684222588165",
        "mean_motion" : "1.096635126579253",
        "equinox" : "J2000"
      }
    }, {
      "links" : {
        "self" : "https://api.nasa.gov/neo/rest/v1/neo/3267071?api_key=t0TVs3DtDT2H8Oy2Zy8m2eVrNsAVKAexjcZXUckd"
      },
      "neo_reference_id" : "3267071",
      "name" : "(2005 CK)",
      "nasa_jpl_url" : "http://ssd.jpl.nasa.gov/sbdb.cgi?sstr=3267071",
      "absolute_magnitude_h" : 26.002,
      "estimated_diameter" : {
        "kilometers" : {
          "estimated_diameter_min" : 0.0167554068,
          "estimated_diameter_max" : 0.0374662286
        },
        "meters" : {
          "estimated_diameter_min" : 16.7554068073,
          "estimated_diameter_max" : 37.4662286118
        },
        "miles" : {
          "estimated_diameter_min" : 0.0104113239,
          "estimated_diameter_max" : 0.0232804279
        },
        "feet" : {
          "estimated_diameter_min" : 54.9718088696,
          "estimated_diameter_max" : 122.9207014786
        }
      },
      "is_potentially_hazardous_asteroid" : false,
      "close_approach_data" : [ {
        "close_approach_date" : "2012-07-22",
        "epoch_date_close_approach" : 1342940400000,
        "relative_velocity" : {
          "kilometers_per_second" : "8.9431939995",
          "kilometers_per_hour" : "32195.4983981529",
          "miles_per_hour" : "20005.0306574523"
        },
        "miss_distance" : {
          "astronomical" : "0.2267202445",
          "lunar" : "88.1941757202",
          "kilometers" : "33916864",
          "miles" : "21074964"
        },
        "orbiting_body" : "Earth"
      } ],
      "orbital_data" : {
        "orbit_id" : "9",
        "orbit_determination_date" : "2017-04-06 09:11:31",
        "orbit_uncertainty" : "7",
        "minimum_orbit_intersection" : ".0245053",
        "jupiter_tisserand_invariant" : "5.599",
        "epoch_osculation" : "2458000.5",
        "eccentricity" : ".08874699388046738",
        "semi_major_axis" : "1.101691772346147",
        "inclination" : "17.20694561429053",
        "ascending_node_longitude" : "313.8873052707344",
        "orbital_period" : "422.3656452553818",
        "perihelion_distance" : "1.003919939367582",
        "perihelion_argument" : "160.4504703590378",
        "aphelion_distance" : "1.199463605324711",
        "perihelion_time" : "2458030.790153389012",
        "mean_anomaly" : "334.182428560327",
        "mean_motion" : ".8523420501739136",
        "equinox" : "J2000"
      }
    }, {
      "links" : {
        "self" : "https://api.nasa.gov/neo/rest/v1/neo/3512703?api_key=t0TVs3DtDT2H8Oy2Zy8m2eVrNsAVKAexjcZXUckd"
      },
      "neo_reference_id" : "3512703",
      "name" : "(2010 FW9)",
      "nasa_jpl_url" : "http://ssd.jpl.nasa.gov/sbdb.cgi?sstr=3512703",
      "absolute_magnitude_h" : 26.7,
      "estimated_diameter" : {
        "kilometers" : {
          "estimated_diameter_min" : 0.0121494041,
          "estimated_diameter_max" : 0.0271668934
        },
        "meters" : {
          "estimated_diameter_min" : 12.14940408,
          "estimated_diameter_max" : 27.1668934089
        },
        "miles" : {
          "estimated_diameter_min" : 0.0075492874,
          "estimated_diameter_max" : 0.0168807197
        },
        "feet" : {
          "estimated_diameter_min" : 39.8602508817,
          "estimated_diameter_max" : 89.1302305717
        }
      },
      "is_potentially_hazardous_asteroid" : false,
      "close_approach_data" : [ {
        "close_approach_date" : "2012-07-22",
        "epoch_date_close_approach" : 1342940400000,
        "relative_velocity" : {
          "kilometers_per_second" : "21.8407838203",
          "kilometers_per_hour" : "78626.8217531038",
          "miles_per_hour" : "48855.6493276438"
        },
        "miss_distance" : {
          "astronomical" : "0.4414304475",
          "lunar" : "171.7164459229",
          "kilometers" : "66037056",
          "miles" : "41033524"
        },
        "orbiting_body" : "Earth"
      } ],
      "orbital_data" : {
        "orbit_id" : "11",
        "orbit_determination_date" : "2017-04-06 08:58:01",
        "orbit_uncertainty" : "8",
        "minimum_orbit_intersection" : ".00205764",
        "jupiter_tisserand_invariant" : "4.180",
        "epoch_osculation" : "2455277.5",
        "eccentricity" : ".432591385379017",
        "semi_major_axis" : "1.641598635502547",
        "inclination" : "3.76705619502725",
        "ascending_node_longitude" : "4.233130565894456",
        "orbital_period" : "768.2435107897559",
        "perihelion_distance" : ".9314572075341964",
        "perihelion_argument" : "220.5964693816127",
        "aphelion_distance" : "2.351740063470898",
        "perihelion_time" : "2455313.933996159423",
        "mean_anomaly" : "342.9269776663538",
        "mean_motion" : ".4686014199194722",
        "equinox" : "J2000"
      }
    } ]
  }
}